[{"OBJECT_NAME":"SMAP","OBJECT_ID":"2015-003A","EPOCH":"2026-03-09T22:25:54.867648","MEAN_MOTION":14.63339546,"ECCENTRICITY":0.00014204,"INCLINATION":98.1313,"RA_OF_ASC_NODE":77.4198,"ARG_OF_PERICENTER":111.7396,"MEAN_ANOMALY":248.3957,"EPHEMERIS_TYPE":0,"CLASSIFICATION_TYPE":"U","NORAD_CAT_ID":40376,"ELEMENT_SET_NO":999,"REV_AT_EPOCH":59310,"BSTAR":0.00014641179,"MEAN_MOTION_DOT":7.09e-6,"MEAN_MOTION_DDOT":0},{"OBJECT_NAME":"COSMOS 886 DEB","OBJECT_ID":"1976-126AN","EPOCH":"2026-03-09T12:28:16.403520","MEAN_MOTION":13.47851871,"ECCENTRICITY":0.0740468,"INCLINATION":65.8391,"RA_OF_ASC_NODE":149.6537,"ARG_OF_PERICENTER":339.428,"MEAN_ANOMALY":17.8327,"EPHEMERIS_TYPE":0,"CLASSIFICATION_TYPE":"U","NORAD_CAT_ID":9826,"ELEMENT_SET_NO":999,"REV_AT_EPOCH":34894,"BSTAR":0.00081724115,"MEAN_MOTION_DOT":2.801e-5,"MEAN_MOTION_DDOT":0}]
